start=new Date('2021-08-24T00:00:00.000Z').valueOf();
sats=[{"OBJECT_TYPE":"PAYLOAD","LAUNCH_DATE":"2020-01-07","TLE_LINE1":"1 44963U 20001BB  21235.59114864  .00002219  00000-0  16245-3 0  9995","MEAN_ANOMALY":"285.6815","CENTER_NAME":"EARTH","FILE":"3101910","MEAN_MOTION_DDOT":"0.0000000000000","COUNTRY_CODE":"US","OBJECT_ID":"2020-001BB","CLASSIFICATION_TYPE":"U","OBJECT_NAME":"STARLINK-1085","RA_OF_ASC_NODE":"192.0135","GP_ID":"183300925","MEAN_MOTION_DOT":"0.00002219","REF_FRAME":"TEME","TLE_LINE2":"2 44963  52.9994 192.0135 0000643  74.4245 285.6815 15.07640566 91102","ECCENTRICITY":"0.00006430","REV_AT_EPOCH":"9110","MEAN_ELEMENT_THEORY":"SGP4","ARG_OF_PERICENTER":"74.4245","EPHEMERIS_TYPE":"0","BSTAR":"0.00016245000000","APOAPSIS":"543.859","NORAD_CAT_ID":"44963","INCLINATION":"52.9994","EPOCH":"2021-08-23T14:11:15.242496","SEMIMAJOR_AXIS":"6921.549","ELEMENT_SET_NO":"999","MEAN_MOTION":"15.07640566","DECAY_DATE":null,"TIME_SYSTEM":"UTC","RCS_SIZE":"LARGE","PERIOD":"95.513","PERIAPSIS":"542.969","SITE":"AFETR"},{"MEAN_MOTION":"15.06394599","DECAY_DATE":null,"ELEMENT_SET_NO":"999","TIME_SYSTEM":"UTC","INCLINATION":"53.0553","SEMIMAJOR_AXIS":"6925.365","EPOCH":"2021-08-23T21:56:38.016096","PERIAPSIS":"546.226","SITE":"AFETR","PERIOD":"95.592","RCS_SIZE":"LARGE","ECCENTRICITY":"0.00014500","REV_AT_EPOCH":"9039","REF_FRAME":"TEME","TLE_LINE2":"2 44964  53.0553 193.1607 0001450  60.0317 300.0815 15.06394599 90393","NORAD_CAT_ID":"44964","EPHEMERIS_TYPE":"0","ARG_OF_PERICENTER":"60.0317","MEAN_ELEMENT_THEORY":"SGP4","APOAPSIS":"548.234","BSTAR":"-0.00008109600000","CLASSIFICATION_TYPE":"U","OBJECT_ID":"2020-001BC","GP_ID":"183327620","MEAN_MOTION_DOT":"-0.00001489","OBJECT_NAME":"STARLINK-1086","RA_OF_ASC_NODE":"193.1607","MEAN_ANOMALY":"300.0815","LAUNCH_DATE":"2020-01-07","OBJECT_TYPE":"PAYLOAD","TLE_LINE1":"1 44964U 20001BC  21235.91432889 -.00001489  00000-0 -81096-4 0  9999","MEAN_MOTION_DDOT":"0.0000000000000","FILE":"3102124","COUNTRY_CODE":"US","CENTER_NAME":"EARTH"},{"BSTAR":"-0.00003404600000","APOAPSIS":"548.298","MEAN_ELEMENT_THEORY":"SGP4","ARG_OF_PERICENTER":"83.7210","EPHEMERIS_TYPE":"0","NORAD_CAT_ID":"44966","TLE_LINE2":"2 44966  53.0540 194.2468 0001522  83.7210 276.3953 15.06389936 90355","REF_FRAME":"TEME","REV_AT_EPOCH":"9035","ECCENTRICITY":"0.00015220","RCS_SIZE":"LARGE","PERIOD":"95.593","SITE":"AFETR","PERIAPSIS":"546.190","EPOCH":"2021-08-23T16:06:19.084608","SEMIMAJOR_AXIS":"6925.379","INCLINATION":"53.0540","TIME_SYSTEM":"UTC","ELEMENT_SET_NO":"999","DECAY_DATE":null,"MEAN_MOTION":"15.06389936","CENTER_NAME":"EARTH","COUNTRY_CODE":"US","FILE":"3102124","MEAN_MOTION_DDOT":"0.0000000000000","TLE_LINE1":"1 44966U 20001BE  21235.67105422 -.00000788  00000-0 -34046-4 0  9998","OBJECT_TYPE":"PAYLOAD","LAUNCH_DATE":"2020-01-07","MEAN_ANOMALY":"276.3953","RA_OF_ASC_NODE":"194.2468","OBJECT_NAME":"STARLINK-1088","MEAN_MOTION_DOT":"-0.00000788","GP_ID":"183327870","OBJECT_ID":"2020-001BE","CLASSIFICATION_TYPE":"U"},{"FILE":"3102124","MEAN_MOTION_DDOT":"0.0000000000000","COUNTRY_CODE":"US","CENTER_NAME":"EARTH","MEAN_ANOMALY":"297.7929","OBJECT_TYPE":"PAYLOAD","LAUNCH_DATE":"2020-01-07","TLE_LINE1":"1 44967U 20001BF  21235.62684406  .00000490  00000-0  51795-4 0  9996","GP_ID":"183328621","MEAN_MOTION_DOT":"0.00000490","OBJECT_NAME":"STARLINK-1089","RA_OF_ASC_NODE":"194.4479","CLASSIFICATION_TYPE":"U","OBJECT_ID":"2020-001BF","NORAD_CAT_ID":"44967","MEAN_ELEMENT_THEORY":"SGP4","ARG_OF_PERICENTER":"62.3185","EPHEMERIS_TYPE":"0","BSTAR":"0.00005179500000","APOAPSIS":"548.072","ECCENTRICITY":"0.00012330","REV_AT_EPOCH":"9035","REF_FRAME":"TEME","TLE_LINE2":"2 44967  53.0544 194.4479 0001233  62.3185 297.7929 15.06398410 90354","PERIAPSIS":"546.365","SITE":"AFETR","RCS_SIZE":"LARGE","PERIOD":"95.592","ELEMENT_SET_NO":"999","MEAN_MOTION":"15.06398410","DECAY_DATE":null,"TIME_SYSTEM":"UTC","INCLINATION":"53.0544","EPOCH":"2021-08-23T15:02:39.326784","SEMIMAJOR_AXIS":"6925.353"},{"NORAD_CAT_ID":"44968","APOAPSIS":"548.138","BSTAR":"0.00007897100000","EPHEMERIS_TYPE":"0","MEAN_ELEMENT_THEORY":"SGP4","ARG_OF_PERICENTER":"61.8125","REV_AT_EPOCH":"9036","ECCENTRICITY":"0.00013580","TLE_LINE2":"2 44968  53.0541 194.1626 0001358  61.8125 298.3001 15.06405200 90364","REF_FRAME":"TEME","SITE":"AFETR","PERIAPSIS":"546.257","PERIOD":"95.592","RCS_SIZE":"LARGE","TIME_SYSTEM":"UTC","DECAY_DATE":null,"MEAN_MOTION":"15.06405200","ELEMENT_SET_NO":"999","SEMIMAJOR_AXIS":"6925.333","EPOCH":"2021-08-23T16:32:49.726752","INCLINATION":"53.0541","COUNTRY_CODE":"US","MEAN_MOTION_DDOT":"0.0000000000000","FILE":"3102124","CENTER_NAME":"EARTH","MEAN_ANOMALY":"298.3001","TLE_LINE1":"1 44968U 20001BG  21235.68946443  .00000895  00000-0  78971-4 0  9999","LAUNCH_DATE":"2020-01-07","OBJECT_TYPE":"PAYLOAD","MEAN_MOTION_DOT":"0.00000895","GP_ID":"183328872","RA_OF_ASC_NODE":"194.1626","OBJECT_NAME":"STARLINK-1090","CLASSIFICATION_TYPE":"U","OBJECT_ID":"2020-001BG"},{"MEAN_MOTION_DOT":"0.00000827","GP_ID":"183328121","RA_OF_ASC_NODE":"194.4955","OBJECT_NAME":"STARLINK-1092","CLASSIFICATION_TYPE":"U","OBJECT_ID":"2020-001BH","COUNTRY_CODE":"US","MEAN_MOTION_DDOT":"0.0000000000000","FILE":"3102124","CENTER_NAME":"EARTH","MEAN_ANOMALY":"305.1993","TLE_LINE1":"1 44969U 20001BH  21235.61575201  .00000827  00000-0  74413-4 0  9995","LAUNCH_DATE":"2020-01-07","OBJECT_TYPE":"PAYLOAD","SITE":"AFETR","PERIAPSIS":"546.226","PERIOD":"95.591","RCS_SIZE":"LARGE","TIME_SYSTEM":"UTC","DECAY_DATE":null,"MEAN_MOTION":"15.06410774","ELEMENT_SET_NO":"999","SEMIMAJOR_AXIS":"6925.316","EPOCH":"2021-08-23T14:46:40.973664","INCLINATION":"53.0538","NORAD_CAT_ID":"44969","APOAPSIS":"548.136","BSTAR":"0.00007441300000","EPHEMERIS_TYPE":"0","ARG_OF_PERICENTER":"54.9125","MEAN_ELEMENT_THEORY":"SGP4","REV_AT_EPOCH":"9034","ECCENTRICITY":"0.00013790","TLE_LINE2":"2 44969  53.0538 194.4955 0001379  54.9125 305.1993 15.06410774 90342","REF_FRAME":"TEME"},{"TLE_LINE1":"1 44970U 20001BJ  21235.39460531 -.00000810  00000-0 -35493-4 0  9990","OBJECT_TYPE":"PAYLOAD","LAUNCH_DATE":"2020-01-07","MEAN_ANOMALY":"297.9130","CENTER_NAME":"EARTH","COUNTRY_CODE":"US","FILE":"3101910","MEAN_MOTION_DDOT":"0.0000000000000","OBJECT_ID":"2020-001BJ","CLASSIFICATION_TYPE":"U","RA_OF_ASC_NODE":"195.4834","OBJECT_NAME":"STARLINK-1093","MEAN_MOTION_DOT":"-0.00000810","GP_ID":"183301428","TLE_LINE2":"2 44970  53.0568 195.4834 0001527  62.2014 297.9130 15.06391078 90300","REF_FRAME":"TEME","REV_AT_EPOCH":"9030","ECCENTRICITY":"0.00015270","BSTAR":"-0.00003549300000","APOAPSIS":"548.298","ARG_OF_PERICENTER":"62.2014","MEAN_ELEMENT_THEORY":"SGP4","EPHEMERIS_TYPE":"0","NORAD_CAT_ID":"44970","EPOCH":"2021-08-23T09:28:13.898784","SEMIMAJOR_AXIS":"6925.376","INCLINATION":"53.0568","TIME_SYSTEM":"UTC","ELEMENT_SET_NO":"999","MEAN_MOTION":"15.06391078","DECAY_DATE":null,"RCS_SIZE":"LARGE","PERIOD":"95.593","SITE":"AFETR","PERIAPSIS":"546.183"},{"REF_FRAME":"TEME","TLE_LINE2":"2 44971  53.0203 153.8098 0008323 274.5740  85.4331 15.83819350 90937","ECCENTRICITY":"0.00083230","REV_AT_EPOCH":"9093","EPHEMERIS_TYPE":"0","ARG_OF_PERICENTER":"274.5740","MEAN_ELEMENT_THEORY":"SGP4","APOAPSIS":"325.228","BSTAR":"0.00052898000000","NORAD_CAT_ID":"44971","INCLINATION":"53.0203","SEMIMAJOR_AXIS":"6697.788","EPOCH":"2021-08-23T22:35:57.490368","MEAN_MOTION":"15.83819350","DECAY_DATE":null,"ELEMENT_SET_NO":"999","TIME_SYSTEM":"UTC","PERIOD":"90.919","RCS_SIZE":"LARGE","PERIAPSIS":"314.079","SITE":"AFETR","LAUNCH_DATE":"2020-01-07","OBJECT_TYPE":"PAYLOAD","TLE_LINE1":"1 44971U 20001BK  21235.94163762  .00121074  00000-0  52898-3 0  9999","MEAN_ANOMALY":"85.4331","CENTER_NAME":"EARTH","MEAN_MOTION_DDOT":"0.0000000000000","FILE":"3102124","COUNTRY_CODE":"US","OBJECT_ID":"2020-001BK","CLASSIFICATION_TYPE":"U","OBJECT_NAME":"STARLINK-1095","RA_OF_ASC_NODE":"153.8098","GP_ID":"183329122","MEAN_MOTION_DOT":"0.00121074"},{"CLASSIFICATION_TYPE":"U","OBJECT_ID":"2020-001BL","GP_ID":"183300926","MEAN_MOTION_DOT":"-0.00000845","OBJECT_NAME":"STARLINK-1107","RA_OF_ASC_NODE":"196.5151","MEAN_ANOMALY":"327.2849","LAUNCH_DATE":"2020-01-07","OBJECT_TYPE":"PAYLOAD","TLE_LINE1":"1 44972U 20001BL  21235.16607240 -.00000845  00000-0 -37820-4 0  9991","MEAN_MOTION_DDOT":"0.0000000000000","FILE":"3101910","COUNTRY_CODE":"US","CENTER_NAME":"EARTH","MEAN_MOTION":"15.06399221","DECAY_DATE":null,"ELEMENT_SET_NO":"999","TIME_SYSTEM":"UTC","INCLINATION":"53.0532","SEMIMAJOR_AXIS":"6925.351","EPOCH":"2021-08-23T03:59:08.655360","PERIAPSIS":"546.345","SITE":"AFETR","PERIOD":"95.592","RCS_SIZE":"LARGE","ECCENTRICITY":"0.00012570","REV_AT_EPOCH":"9028","REF_FRAME":"TEME","TLE_LINE2":"2 44972  53.0532 196.5151 0001257  32.8218 327.2849 15.06399221 90285","NORAD_CAT_ID":"44972","EPHEMERIS_TYPE":"0","MEAN_ELEMENT_THEORY":"SGP4","ARG_OF_PERICENTER":"32.8218","APOAPSIS":"548.086","BSTAR":"-0.00003782000000"},{"COUNTRY_CODE":"US","MEAN_MOTION_DDOT":"0.0000000000000","FILE":"3102124","CENTER_NAME":"EARTH","MEAN_ANOMALY":"312.9202","TLE_LINE1":"1 44973U 20001BM  21235.60838905 -.00001044  00000-0 -51244-4 0  9993","LAUNCH_DATE":"2020-01-07","OBJECT_TYPE":"PAYLOAD","MEAN_MOTION_DOT":"-0.00001044","GP_ID":"183327621","RA_OF_ASC_NODE":"194.5267","OBJECT_NAME":"STARLINK-1115","CLASSIFICATION_TYPE":"U","OBJECT_ID":"2020-001BM","NORAD_CAT_ID":"44973","APOAPSIS":"547.983","BSTAR":"-0.00005124400000","EPHEMERIS_TYPE":"0","ARG_OF_PERICENTER":"47.1879","MEAN_ELEMENT_THEORY":"SGP4","REV_AT_EPOCH":"9034","ECCENTRICITY":"0.00010990","TLE_LINE2":"2 44973  53.0544 194.5267 0001099  47.1879 312.9202 15.06397239 90349","REF_FRAME":"TEME","SITE":"AFETR","PERIAPSIS":"546.461","PERIOD":"95.592","RCS_SIZE":"LARGE","TIME_SYSTEM":"UTC","MEAN_MOTION":"15.06397239","DECAY_DATE":null,"ELEMENT_SET_NO":"999","SEMIMAJOR_AXIS":"6925.357","EPOCH":"2021-08-23T14:36:04.813920","INCLINATION":"53.0544"}];
